[{"OBJECT_NAME":"STARLINK-5052","OBJECT_ID":"2022-119H","EPOCH":"2026-03-09T22:46:21.313056","MEAN_MOTION":15.08840994,"ECCENTRICITY":0.00014826,"INCLINATION":53.2168,"RA_OF_ASC_NODE":322.9627,"ARG_OF_PERICENTER":116.2808,"MEAN_ANOMALY":243.8336,"EPHEMERIS_TYPE":0,"CLASSIFICATION_TYPE":"U","NORAD_CAT_ID":53893,"ELEMENT_SET_NO":999,"REV_AT_EPOCH":19172,"BSTAR":-0.00012492769,"MEAN_MOTION_DOT":-2.276e-5,"MEAN_MOTION_DDOT":0},{"OBJECT_NAME":"UNISAT","OBJECT_ID":"2000-057C","EPOCH":"2026-03-09T10:21:07.624800","MEAN_MOTION":15.08907267,"ECCENTRICITY":0.00363457,"INCLINATION":64.544,"RA_OF_ASC_NODE":74.146,"ARG_OF_PERICENTER":312.3548,"MEAN_ANOMALY":47.4494,"EPHEMERIS_TYPE":0,"CLASSIFICATION_TYPE":"U","NORAD_CAT_ID":26547,"ELEMENT_SET_NO":999,"REV_AT_EPOCH":38146,"BSTAR":0.00046170414,"MEAN_MOTION_DOT":7.242e-5,"MEAN_MOTION_DDOT":0}]
